[{"OBJECT_NAME":"STARLINK-30329","OBJECT_ID":"2023-122D","EPOCH":"2026-03-09T10:09:40.039776","MEAN_MOTION":15.2674653,"ECCENTRICITY":0.00014457,"INCLINATION":43.0009,"RA_OF_ASC_NODE":94.2279,"ARG_OF_PERICENTER":260.6424,"MEAN_ANOMALY":99.4264,"EPHEMERIS_TYPE":0,"CLASSIFICATION_TYPE":"U","NORAD_CAT_ID":57635,"ELEMENT_SET_NO":999,"REV_AT_EPOCH":14216,"BSTAR":6.0950903e-5,"MEAN_MOTION_DOT":1.376e-5,"MEAN_MOTION_DDOT":0},{"OBJECT_NAME":"TRANSPORTER-14 OBJECT AC","OBJECT_ID":"2025-135AC","EPOCH":"2026-03-09T19:42:26.378496","MEAN_MOTION":15.26845403,"ECCENTRICITY":0.00010083,"INCLINATION":97.4518,"RA_OF_ASC_NODE":185.7428,"ARG_OF_PERICENTER":268.0523,"MEAN_ANOMALY":92.06,"EPHEMERIS_TYPE":0,"CLASSIFICATION_TYPE":"U","NORAD_CAT_ID":64554,"ELEMENT_SET_NO":999,"REV_AT_EPOCH":3982,"BSTAR":0.0009323368,"MEAN_MOTION_DOT":0.00024574,"MEAN_MOTION_DDOT":0}]
